start=new Date('2023-02-07T00:00:00.000Z').valueOf();
sats=[{"RCS_SIZE":"LARGE","EPOCH":"2023-02-06T17:25:15.938688","CLASSIFICATION_TYPE":"U","OBJECT_TYPE":"PAYLOAD","MEAN_ELEMENT_THEORY":"SGP4","RA_OF_ASC_NODE":"303.1789","INCLINATION":"53.2164","EPHEMERIS_TYPE":"0","APOAPSIS":"540.631","REF_FRAME":"TEME","PERIOD":"95.437","COUNTRY_CODE":"US","BSTAR":"0.00040025000000","PERIAPSIS":"538.840","MEAN_ANOMALY":"260.8343","SITE":"AFETR","SEMIMAJOR_AXIS":"6917.870","ELEMENT_SET_NO":"999","FILE":"3776034","MEAN_MOTION_DOT":"0.00006088","DECAY_DATE":null,"REV_AT_EPOCH":"2371","ARG_OF_PERICENTER":"99.2795","TLE_LINE2":"2 53773  53.2164 303.1789 0001295  99.2795 260.8343 15.08843253 23715","OBJECT_ID":"2022-111A","TLE_LINE1":"1 53773U 22111A   23037.72587892  .00006088  00000-0  40025-3 0  9991","OBJECT_NAME":"STARLINK-4718","CENTER_NAME":"EARTH","TIME_SYSTEM":"UTC","LAUNCH_DATE":"2022-09-11","MEAN_MOTION_DDOT":"0.0000000000000","GP_ID":"224655301","ECCENTRICITY":"0.00012950","NORAD_CAT_ID":"53773","MEAN_MOTION":"15.08843253"},{"NORAD_CAT_ID":"53774","MEAN_MOTION":"15.08828132","ECCENTRICITY":"0.00012650","GP_ID":"224654056","LAUNCH_DATE":"2022-09-11","MEAN_MOTION_DDOT":"0.0000000000000","TIME_SYSTEM":"UTC","CENTER_NAME":"EARTH","OBJECT_NAME":"STARLINK-4719","TLE_LINE1":"1 53774U 22111B   23037.72220285  .00007755  00000-0  50495-3 0  9996","OBJECT_ID":"2022-111B","TLE_LINE2":"2 53774  53.2183 303.1512 0001265 100.5920 259.5215 15.08828132 23570","ARG_OF_PERICENTER":"100.5920","REV_AT_EPOCH":"2357","DECAY_DATE":null,"MEAN_MOTION_DOT":"0.00007755","FILE":"3776034","SITE":"AFETR","ELEMENT_SET_NO":"999","SEMIMAJOR_AXIS":"6917.917","PERIAPSIS":"538.907","MEAN_ANOMALY":"259.5215","BSTAR":"0.00050495000000","PERIOD":"95.438","COUNTRY_CODE":"US","REF_FRAME":"TEME","APOAPSIS":"540.657","EPHEMERIS_TYPE":"0","INCLINATION":"53.2183","MEAN_ELEMENT_THEORY":"SGP4","RA_OF_ASC_NODE":"303.1512","OBJECT_TYPE":"PAYLOAD","EPOCH":"2023-02-06T17:19:58.326240","CLASSIFICATION_TYPE":"U","RCS_SIZE":"LARGE"},{"REV_AT_EPOCH":"2358","ARG_OF_PERICENTER":"97.4879","TLE_LINE2":"2 53775  53.2173 292.7769 0001056  97.4879 262.6233 15.08843742 23582","OBJECT_ID":"2022-111C","TLE_LINE1":"1 53775U 22111C   23037.88507333  .00000267  00000-0  34838-4 0  9991","OBJECT_NAME":"STARLINK-4722","TIME_SYSTEM":"UTC","CENTER_NAME":"EARTH","LAUNCH_DATE":"2022-09-11","MEAN_MOTION_DDOT":"0.0000000000000","GP_ID":"224654305","ECCENTRICITY":"0.00010560","NORAD_CAT_ID":"53775","MEAN_MOTION":"15.08843742","RCS_SIZE":"LARGE","CLASSIFICATION_TYPE":"U","EPOCH":"2023-02-06T21:14:30.335712","OBJECT_TYPE":"PAYLOAD","MEAN_ELEMENT_THEORY":"SGP4","RA_OF_ASC_NODE":"292.7769","INCLINATION":"53.2173","EPHEMERIS_TYPE":"0","APOAPSIS":"540.464","REF_FRAME":"TEME","PERIOD":"95.437","COUNTRY_CODE":"US","BSTAR":"0.00003483800000","PERIAPSIS":"539.003","MEAN_ANOMALY":"262.6233","ELEMENT_SET_NO":"999","SITE":"AFETR","SEMIMAJOR_AXIS":"6917.869","FILE":"3776034","MEAN_MOTION_DOT":"0.00000267","DECAY_DATE":null},{"BSTAR":"0.00075849000000","PERIAPSIS":"538.971","MEAN_ANOMALY":"272.1379","PERIOD":"95.437","COUNTRY_CODE":"US","MEAN_MOTION_DOT":"0.00011808","DECAY_DATE":null,"SITE":"AFETR","ELEMENT_SET_NO":"999","SEMIMAJOR_AXIS":"6917.846","FILE":"3776034","OBJECT_TYPE":"PAYLOAD","RCS_SIZE":"LARGE","EPOCH":"2023-02-06T21:01:57.450432","CLASSIFICATION_TYPE":"U","EPHEMERIS_TYPE":"0","REF_FRAME":"TEME","APOAPSIS":"540.450","MEAN_ELEMENT_THEORY":"SGP4","RA_OF_ASC_NODE":"297.7116","INCLINATION":"53.2173","OBJECT_NAME":"STARLINK-4708","OBJECT_ID":"2022-111D","TLE_LINE1":"1 53776U 22111D   23037.87635938  .00011808  00000-0  75849-3 0  9993","ECCENTRICITY":"0.00010690","GP_ID":"224654554","NORAD_CAT_ID":"53776","MEAN_MOTION":"15.08851268","TIME_SYSTEM":"UTC","CENTER_NAME":"EARTH","LAUNCH_DATE":"2022-09-11","MEAN_MOTION_DDOT":"0.0000000000000","ARG_OF_PERICENTER":"87.9736","REV_AT_EPOCH":"2379","TLE_LINE2":"2 53776  53.2173 297.7116 0001069  87.9736 272.1379 15.08851268 23796"},{"LAUNCH_DATE":"2022-09-11","MEAN_MOTION_DDOT":"0.0000000000000","TIME_SYSTEM":"UTC","CENTER_NAME":"EARTH","MEAN_MOTION":"15.08845861","NORAD_CAT_ID":"53777","GP_ID":"224654803","ECCENTRICITY":"0.00013770","TLE_LINE1":"1 53777U 22111E   23037.87770709  .00008196  00000-0  53237-3 0  9993","OBJECT_ID":"2022-111E","OBJECT_NAME":"STARLINK-4664","TLE_LINE2":"2 53777  53.2172 292.7313 0001377  91.6807 268.4343 15.08845861 23581","REV_AT_EPOCH":"2358","ARG_OF_PERICENTER":"91.6807","FILE":"3776034","SEMIMAJOR_AXIS":"6917.862","SITE":"AFETR","ELEMENT_SET_NO":"999","DECAY_DATE":null,"MEAN_MOTION_DOT":"0.00008196","COUNTRY_CODE":"US","PERIOD":"95.437","MEAN_ANOMALY":"268.4343","PERIAPSIS":"538.775","BSTAR":"0.00053237000000","INCLINATION":"53.2172","RA_OF_ASC_NODE":"292.7313","MEAN_ELEMENT_THEORY":"SGP4","REF_FRAME":"TEME","APOAPSIS":"540.680","EPHEMERIS_TYPE":"0","CLASSIFICATION_TYPE":"U","EPOCH":"2023-02-06T21:03:53.892576","RCS_SIZE":"LARGE","OBJECT_TYPE":"PAYLOAD"},{"TLE_LINE2":"2 53778  53.2178 297.2063 0001283 117.1141 242.9983 15.08848332 23528","ARG_OF_PERICENTER":"117.1141","REV_AT_EPOCH":"2352","MEAN_MOTION":"15.08848332","NORAD_CAT_ID":"53778","GP_ID":"224653558","ECCENTRICITY":"0.00012830","LAUNCH_DATE":"2022-09-11","MEAN_MOTION_DDOT":"0.0000000000000","TIME_SYSTEM":"UTC","CENTER_NAME":"EARTH","OBJECT_NAME":"STARLINK-4709","TLE_LINE1":"1 53778U 22111F   23037.90943271  .00000231  00000-0  32622-4 0  9992","OBJECT_ID":"2022-111F","APOAPSIS":"540.607","REF_FRAME":"TEME","EPHEMERIS_TYPE":"0","INCLINATION":"53.2178","RA_OF_ASC_NODE":"297.2063","MEAN_ELEMENT_THEORY":"SGP4","OBJECT_TYPE":"PAYLOAD","EPOCH":"2023-02-06T21:49:34.986144","CLASSIFICATION_TYPE":"U","RCS_SIZE":"LARGE","DECAY_DATE":null,"MEAN_MOTION_DOT":"0.00000231","FILE":"3776034","SITE":"AFETR","SEMIMAJOR_AXIS":"6917.855","ELEMENT_SET_NO":"999","MEAN_ANOMALY":"242.9983","PERIAPSIS":"538.832","BSTAR":"0.00003262200000","COUNTRY_CODE":"US","PERIOD":"95.437"},{"PERIAPSIS":"538.864","MEAN_ANOMALY":"275.0693","BSTAR":"0.00047774000000","PERIOD":"95.437","COUNTRY_CODE":"US","DECAY_DATE":null,"MEAN_MOTION_DOT":"0.00007326","FILE":"3776034","ELEMENT_SET_NO":"999","SITE":"AFETR","SEMIMAJOR_AXIS":"6917.846","OBJECT_TYPE":"PAYLOAD","EPOCH":"2023-02-06T20:58:35.521536","CLASSIFICATION_TYPE":"U","RCS_SIZE":"LARGE","REF_FRAME":"TEME","APOAPSIS":"540.558","EPHEMERIS_TYPE":"0","INCLINATION":"53.2162","MEAN_ELEMENT_THEORY":"SGP4","RA_OF_ASC_NODE":"292.7133","OBJECT_NAME":"STARLINK-4706","TLE_LINE1":"1 53779U 22111G   23037.87402224  .00007326  00000-0  47774-3 0  9992","OBJECT_ID":"2022-111G","NORAD_CAT_ID":"53779","MEAN_MOTION":"15.08851253","ECCENTRICITY":"0.00012240","GP_ID":"224653807","MEAN_MOTION_DDOT":"0.0000000000000","LAUNCH_DATE":"2022-09-11","CENTER_NAME":"EARTH","TIME_SYSTEM":"UTC","ARG_OF_PERICENTER":"85.0439","REV_AT_EPOCH":"2358","TLE_LINE2":"2 53779  53.2162 292.7133 0001224  85.0439 275.0693 15.08851253 23585"},{"TLE_LINE2":"2 53780  53.2187 292.7496 0000941  91.3018 268.8082 15.08850527 23589","ARG_OF_PERICENTER":"91.3018","REV_AT_EPOCH":"2358","GP_ID":"224655052","ECCENTRICITY":"0.00009410","MEAN_MOTION":"15.08850527","NORAD_CAT_ID":"53780","TIME_SYSTEM":"UTC","CENTER_NAME":"EARTH","LAUNCH_DATE":"2022-09-11","MEAN_MOTION_DDOT":"0.0000000000000","OBJECT_NAME":"STARLINK-4678","OBJECT_ID":"2022-111H","TLE_LINE1":"1 53780U 22111H   23037.88138395  .00000385  00000-0  42226-4 0  9996","EPHEMERIS_TYPE":"0","APOAPSIS":"540.364","REF_FRAME":"TEME","RA_OF_ASC_NODE":"292.7496","MEAN_ELEMENT_THEORY":"SGP4","INCLINATION":"53.2187","OBJECT_TYPE":"PAYLOAD","RCS_SIZE":"LARGE","EPOCH":"2023-02-06T21:09:11.573280","CLASSIFICATION_TYPE":"U","MEAN_MOTION_DOT":"0.00000385","DECAY_DATE":null,"SITE":"AFETR","SEMIMAJOR_AXIS":"6917.848","ELEMENT_SET_NO":"999","FILE":"3776034","BSTAR":"0.00004222600000","MEAN_ANOMALY":"268.8082","PERIAPSIS":"539.062","COUNTRY_CODE":"US","PERIOD":"95.437"},{"ARG_OF_PERICENTER":"87.7352","REV_AT_EPOCH":"2358","TLE_LINE2":"2 53781  53.2172 292.6337 0001141  87.7352 272.3771 15.08838004 23581","OBJECT_NAME":"STARLINK-4462","OBJECT_ID":"2022-111J","TLE_LINE1":"1 53781U 22111J   23037.86296553  .00000585  00000-0  54812-4 0  9992","GP_ID":"224655302","ECCENTRICITY":"0.00011410","NORAD_CAT_ID":"53781","MEAN_MOTION":"15.08838004","TIME_SYSTEM":"UTC","CENTER_NAME":"EARTH","LAUNCH_DATE":"2022-09-11","MEAN_MOTION_DDOT":"0.0000000000000","OBJECT_TYPE":"PAYLOAD","RCS_SIZE":"LARGE","CLASSIFICATION_TYPE":"U","EPOCH":"2023-02-06T20:42:40.221792","EPHEMERIS_TYPE":"0","APOAPSIS":"540.541","REF_FRAME":"TEME","MEAN_ELEMENT_THEORY":"SGP4","RA_OF_ASC_NODE":"292.6337","INCLINATION":"53.2172","BSTAR":"0.00005481200000","PERIAPSIS":"538.962","MEAN_ANOMALY":"272.3771","PERIOD":"95.438","COUNTRY_CODE":"US","MEAN_MOTION_DOT":"0.00000585","DECAY_DATE":null,"ELEMENT_SET_NO":"999","SITE":"AFETR","SEMIMAJOR_AXIS":"6917.886","FILE":"3776034"},{"OBJECT_TYPE":"PAYLOAD","RCS_SIZE":"LARGE","EPOCH":"2023-02-06T22:28:40.088640","CLASSIFICATION_TYPE":"U","EPHEMERIS_TYPE":"0","REF_FRAME":"TEME","APOAPSIS":"540.440","MEAN_ELEMENT_THEORY":"SGP4","RA_OF_ASC_NODE":"292.3906","INCLINATION":"53.2171","BSTAR":"0.00005805800000","PERIAPSIS":"539.063","MEAN_ANOMALY":"272.8119","PERIOD":"95.438","COUNTRY_CODE":"US","MEAN_MOTION_DOT":"0.00000636","DECAY_DATE":null,"ELEMENT_SET_NO":"999","SITE":"AFETR","SEMIMAJOR_AXIS":"6917.887","FILE":"3775930","ARG_OF_PERICENTER":"87.2987","REV_AT_EPOCH":"2278","TLE_LINE2":"2 53782  53.2171 292.3906 0000995  87.2987 272.8119 15.08837991 22781","OBJECT_NAME":"STARLINK-4679","OBJECT_ID":"2022-111K","TLE_LINE1":"1 53782U 22111K   23037.93657510  .00000636  00000-0  58058-4 0  9998","ECCENTRICITY":"0.00009950","GP_ID":"224626107","NORAD_CAT_ID":"53782","MEAN_MOTION":"15.08837991","CENTER_NAME":"EARTH","TIME_SYSTEM":"UTC","LAUNCH_DATE":"2022-09-11","MEAN_MOTION_DDOT":"0.0000000000000"}];
